GLONASS 79 (782)        
1 23734U 95068A   01265.07366807 -.00000003  00000-0  10000-3 0  1460
2 23734  64.8836 139.6272 0014809 317.1936 186.4651  2.13102281 44940
GLONASS 82 (779)        
1 25593U 98077A   01265.58576100 -.00000076  00000-0  10000-3 0  7694
2 25593  65.1413  18.5985 0011961  79.8066 259.3674  2.13101807 21222
GLONASS 80 (786)        
1 25594U 98077B   01265.32423032 -.00000075  00000-0  10000-3 0  8108
2 25594  65.1370  18.6046 0011517  63.0814 122.4401  2.13102121 21225
GLONASS 81 (784)        
1 25595U 98077C   01265.51908109 -.00000076  00000-0  10000-3 0  7631
2 25595  65.1465  18.5904 0004306 126.7355 253.8813  2.13102456 21236
COSMOS 2374 (783)       
1 26564U 00063A   01263.41032977  .00000030  00000-0  10000-3 0  3044
2 26564  64.7139 259.0382 0002096  16.5840 126.8766  2.13102300  7279
COSMOS 2375 (787)       
1 26565U 00063B   01263.77733218  .00000033  00000-0  10000-3 0  3111
2 26565  64.7187 259.0187 0002571 266.7795 202.4047  2.13102282  7285
COSMOS 2376 (788)       
1 26566U 00063C   01263.51773925  .00000031  00000-0  10000-3 0  3144
2 26566  64.7055 258.9914 0040284 231.3866 308.4437  2.13099193  7271
GLONASS 81 (784)        
1 25595U 98077C   01048.22465072 -.00000048  00000-0  10000-3 0  5788
2 25595  65.1063  26.0571 0001014 104.2550 255.7579  2.13102692 16602
COSMOS 2374 (783)       
1 26564U 00063A   01045.95624337  .00000038  00000-0  10000-3 0  1246
2 26564  64.7852 266.4471 0004707  51.2996 308.7953  2.13102069  2648
COSMOS 2375 (787)       
1 26565U 00063B   01047.02416416  .00000050  00000-0  10000-3 0  1406
2 26565  64.7883 266.3992 0001601  31.4805 111.9798  2.13102063  2666
COSMOS 2376 (788)       
1 26566U 00063C   01046.01354977  .00000039  00000-0  10000-3 0  1236
2 26566  64.7688 266.4003 0037595 232.5161 127.1960  2.13101531  2641

